{
  "type": "FeatureCollection",
  "features": [
    {
      "type": "Feature",
      "properties": {
        "norad_id": 29968,
        "name": "FENGYUN 1C DEB",
        "group": "fengyun-1c-debris",
        "lat": -45.23715080427993,
        "lon": -0.5387471177190696,
        "alt_km": 810.5949382769395,
        "timestamp": "2025-12-27T02:10:16.462230+00:00",
        "meta_object_name": "FENGYUN 1C DEB",
        "meta_object_id": "1999-025KS",
        "meta_epoch": "2025-12-26T18:41:33.934272",
        "meta_mean_motion": 14.07267894,
        "meta_eccentricity": 0.0089427,
        "meta_inclination": 98.8056,
        "meta_ra_of_asc_node": 350.1658,
        "meta_arg_of_pericenter": 315.1548,
        "meta_mean_anomaly": 221.2464,
        "meta_ephemeris_type": 0,
        "meta_classification_type": "U",
        "meta_norad_cat_id": 29968,
        "meta_element_set_no": 999,
        "meta_rev_at_epoch": 97246,
        "meta_bstar": 0.00023153,
        "meta_mean_motion_dot": 3.59e-06,
        "meta_mean_motion_ddot": 0,
        "tle_line1": "1 29968U 99025KS  25360.77886498  .00000359  00000+0  23153-3 0  9995",
        "tle_line2": "2 29968  98.8056 350.1658 0089427 315.1548 221.2464 14.07267894972464"
      },
      "geometry": {
        "type": "Point",
        "coordinates": [
          -0.5387471177190696,
          -45.23715080427993
        ]
      }
    },
    {
      "type": "Feature",
      "properties": {
        "norad_id": 29969,
        "name": "FENGYUN 1C DEB",
        "group": "fengyun-1c-debris",
        "lat": -80.58381828513302,
        "lon": 154.15244776854016,
        "alt_km": 789.4911719273287,
        "timestamp": "2025-12-27T02:10:16.462240+00:00",
        "meta_object_name": "FENGYUN 1C DEB",
        "meta_object_id": "1999-025KT",
        "meta_epoch": "2025-12-26T05:02:43.431360",
        "meta_mean_motion": 14.33337195,
        "meta_eccentricity": 0.0040818,
        "meta_inclination": 98.7701,
        "meta_ra_of_asc_node": 84.6914,
        "meta_arg_of_pericenter": 9.3854,
        "meta_mean_anomaly": 45.0217,
        "meta_ephemeris_type": 0,
        "meta_classification_type": "U",
        "meta_norad_cat_id": 29969,
        "meta_element_set_no": 999,
        "meta_rev_at_epoch": 97855,
        "meta_bstar": 0.0017191,
        "meta_mean_motion_dot": 4.738e-05,
        "meta_mean_motion_ddot": 0,
        "tle_line1": "1 29969U 99025KT  25360.21022490  .00004738  00000+0  17191-2 0  9998",
        "tle_line2": "2 29969  98.7701  84.6914 0040818   9.3854  45.0217 14.33337195978553"
      },
      "geometry": {
        "type": "Point",
        "coordinates": [
          154.15244776854016,
          -80.58381828513302
        ]
      }
    },
    {
      "type": "Feature",
      "properties": {
        "norad_id": 29970,
        "name": "FENGYUN 1C DEB",
        "group": "fengyun-1c-debris",
        "lat": -48.21437755619808,
        "lon": -60.099291882627774,
        "alt_km": 815.501899526449,
        "timestamp": "2025-12-27T02:10:16.462250+00:00",
        "meta_object_name": "FENGYUN 1C DEB",
        "meta_object_id": "1999-025KU",
        "meta_epoch": "2025-12-26T18:11:01.612320",
        "meta_mean_motion": 14.43991698,
        "meta_eccentricity": 0.0091498,
        "meta_inclination": 98.8099,
        "meta_ra_of_asc_node": 289.5624,
        "meta_arg_of_pericenter": 145.5944,
        "meta_mean_anomaly": 236.1761,
        "meta_ephemeris_type": 0,
        "meta_classification_type": "U",
        "meta_norad_cat_id": 29970,
        "meta_element_set_no": 999,
        "meta_rev_at_epoch": 99323,
        "meta_bstar": 0.00041751,
        "meta_mean_motion_dot": 1.452e-05,
        "meta_mean_motion_ddot": 0,
        "tle_line1": "1 29970U 99025KU  25360.75765755  .00001452  00000+0  41751-3 0  9997",
        "tle_line2": "2 29970  98.8099 289.5624 0091498 145.5944 236.1761 14.43991698993237"
      },
      "geometry": {
        "type": "Point",
        "coordinates": [
          -60.099291882627774,
          -48.21437755619808
        ]
      }
    },
    {
      "type": "Feature",
      "properties": {
        "norad_id": 29971,
        "name": "FENGYUN 1C DEB",
        "group": "fengyun-1c-debris",
        "lat": 38.76011514480666,
        "lon": 33.500340227478176,
        "alt_km": 827.8695051851428,
        "timestamp": "2025-12-27T02:10:16.462261+00:00",
        "meta_object_name": "FENGYUN 1C DEB",
        "meta_object_id": "1999-025KV",
        "meta_epoch": "2025-12-26T14:43:13.031328",
        "meta_mean_motion": 14.18223866,
        "meta_eccentricity": 0.0024159,
        "meta_inclination": 98.682,
        "meta_ra_of_asc_node": 40.0803,
        "meta_arg_of_pericenter": 129.1629,
        "meta_mean_anomaly": 355.8628,
        "meta_ephemeris_type": 0,
        "meta_classification_type": "U",
        "meta_norad_cat_id": 29971,
        "meta_element_set_no": 999,
        "meta_rev_at_epoch": 97536,
        "meta_bstar": 0.00081546,
        "meta_mean_motion_dot": 1.639e-05,
        "meta_mean_motion_ddot": 0,
        "tle_line1": "1 29971U 99025KV  25360.61334527  .00001639  00000+0  81546-3 0  9995",
        "tle_line2": "2 29971  98.6820  40.0803 0024159 129.1629 355.8628 14.18223866975367"
      },
      "geometry": {
        "type": "Point",
        "coordinates": [
          33.500340227478176,
          38.76011514480666
        ]
      }
    },
    {
      "type": "Feature",
      "properties": {
        "norad_id": 29972,
        "name": "FENGYUN 1C DEB",
        "group": "fengyun-1c-debris",
        "lat": 8.30908713525125,
        "lon": -164.2526538662578,
        "alt_km": 715.3166563168925,
        "timestamp": "2025-12-27T02:10:16.462271+00:00",
        "meta_object_name": "FENGYUN 1C DEB",
        "meta_object_id": "1999-025KW",
        "meta_epoch": "2025-12-25T23:29:59.409312",
        "meta_mean_motion": 14.66520345,
        "meta_eccentricity": 0.0064013,
        "meta_inclination": 98.9208,
        "meta_ra_of_asc_node": 13.2255,
        "meta_arg_of_pericenter": 331.395,
        "meta_mean_anomaly": 96.6459,
        "meta_ephemeris_type": 0,
        "meta_classification_type": "U",
        "meta_norad_cat_id": 29972,
        "meta_element_set_no": 999,
        "meta_rev_at_epoch": 99680,
        "meta_bstar": 0.001216,
        "meta_mean_motion_dot": 6.895e-05,
        "meta_mean_motion_ddot": 0,
        "tle_line1": "1 29972U 99025KW  25359.97915983  .00006895  00000+0  12160-2 0  9998",
        "tle_line2": "2 29972  98.9208  13.2255 0064013 331.3950  96.6459 14.66520345996800"
      },
      "geometry": {
        "type": "Point",
        "coordinates": [
          -164.2526538662578,
          8.30908713525125
        ]
      }
    },
    {
      "type": "Feature",
      "properties": {
        "norad_id": 29973,
        "name": "FENGYUN 1C DEB",
        "group": "fengyun-1c-debris",
        "lat": 67.24260185811028,
        "lon": -156.96234036413563,
        "alt_km": 821.3426867089311,
        "timestamp": "2025-12-27T02:10:16.462281+00:00",
        "meta_object_name": "FENGYUN 1C DEB",
        "meta_object_id": "1999-025KX",
        "meta_epoch": "2025-12-26T19:24:29.151936",
        "meta_mean_motion": 14.06566166,
        "meta_eccentricity": 0.0059634,
        "meta_inclination": 98.8428,
        "meta_ra_of_asc_node": 0.9789,
        "meta_arg_of_pericenter": 109.8923,
        "meta_mean_anomaly": 14.9679,
        "meta_ephemeris_type": 0,
        "meta_classification_type": "U",
        "meta_norad_cat_id": 29973,
        "meta_element_set_no": 999,
        "meta_rev_at_epoch": 96916,
        "meta_bstar": 0.00074856,
        "meta_mean_motion_dot": 1.217e-05,
        "meta_mean_motion_ddot": 0,
        "tle_line1": "1 29973U 99025KX  25360.80867074  .00001217  00000+0  74856-3 0  9994",
        "tle_line2": "2 29973  98.8428   0.9789 0059634 109.8923  14.9679 14.06566166969161"
      },
      "geometry": {
        "type": "Point",
        "coordinates": [
          -156.96234036413563,
          67.24260185811028
        ]
      }
    },
    {
      "type": "Feature",
      "properties": {
        "norad_id": 29974,
        "name": "FENGYUN 1C DEB",
        "group": "fengyun-1c-debris",
        "lat": 38.7698337486472,
        "lon": 77.98964753264755,
        "alt_km": 806.5383759190308,
        "timestamp": "2025-12-27T02:10:16.462291+00:00",
        "meta_object_name": "FENGYUN 1C DEB",
        "meta_object_id": "1999-025KY",
        "meta_epoch": "2025-12-25T18:19:09.435360",
        "meta_mean_motion": 14.14899143,
        "meta_eccentricity": 0.00458885,
        "meta_inclination": 98.8931,
        "meta_ra_of_asc_node": 83.8916,
        "meta_arg_of_pericenter": 45.0946,
        "meta_mean_anomaly": 78.0033,
        "meta_ephemeris_type": 0,
        "meta_classification_type": "U",
        "meta_norad_cat_id": 29974,
        "meta_element_set_no": 999,
        "meta_rev_at_epoch": 97109,
        "meta_bstar": 0.0010376038,
        "meta_mean_motion_dot": 1.981e-05,
        "meta_mean_motion_ddot": 0,
        "tle_line1": "1 29974U 99025KY  25359.76330365  .00001981  00000+0  10376-2 0  9990",
        "tle_line2": "2 29974  98.8931  83.8916 0045888  45.0946  78.0033 14.14899143971098"
      },
      "geometry": {
        "type": "Point",
        "coordinates": [
          77.98964753264755,
          38.7698337486472
        ]
      }
    }
  ]
}